[{"OBJECT_NAME":"STARLINK-2098","OBJECT_ID":"2021-005AF","EPOCH":"2026-03-09T02:03:46.038528","MEAN_MOTION":15.30199006,"ECCENTRICITY":0.00012278,"INCLINATION":53.1592,"RA_OF_ASC_NODE":16.9696,"ARG_OF_PERICENTER":84.6552,"MEAN_ANOMALY":275.4589,"EPHEMERIS_TYPE":0,"CLASSIFICATION_TYPE":"U","NORAD_CAT_ID":47378,"ELEMENT_SET_NO":999,"REV_AT_EPOCH":28362,"BSTAR":-9.8556e-8,"MEAN_MOTION_DOT":-3.62e-6,"MEAN_MOTION_DDOT":0},{"OBJECT_NAME":"OBJECT L","OBJECT_ID":"2023-085L","EPOCH":"2026-03-09T23:02:21.999840","MEAN_MOTION":15.29079976,"ECCENTRICITY":0.0005428,"INCLINATION":97.486,"RA_OF_ASC_NODE":178.8598,"ARG_OF_PERICENTER":50.8528,"MEAN_ANOMALY":309.3193,"EPHEMERIS_TYPE":0,"CLASSIFICATION_TYPE":"U","NORAD_CAT_ID":57014,"ELEMENT_SET_NO":999,"REV_AT_EPOCH":15144,"BSTAR":0.00063462603,"MEAN_MOTION_DOT":0.00017871,"MEAN_MOTION_DDOT":0}]
